ELECTRON KICK STAGE R/B 
1 68293U 26056C   26093.86943038  .00127375  00000+0  19613-2 0  9994
2 68293  50.2922 336.7653 0153195  68.2534 293.4659 15.40968504  2186
STARLINK-37107          
1 68294U 26057A   26093.83335647 -.01356089  00000+0 -61755-2 0  9997
2 68294  97.2815 217.4212 0001414  72.3881   0.2846 15.86472916  3205
STARLINK-37147          
1 68295U 26057B   26093.83335647 -.01349339  00000+0 -61272-2 0  9992
2 68295  97.2810 217.4221 0001389  72.2321   4.4169 15.86517503  3194
STARLINK-37142          
1 68296U 26057C   26093.83335647 -.01366856  00000+0 -61929-2 0  9995
2 68296  97.2800 217.4271 0001506  69.2343  20.0335 15.86598320  3083
STARLINK-37115          
1 68297U 26057D   26093.83335647 -.01369340  00000+0 -62188-2 0  9995
2 68297  97.2800 217.4243 0001329  74.1384  11.0709 15.86557652  3084
STARLINK-36355          
1 68298U 26057E   26093.83335647 -.01361932  00000+0 -61788-2 0  9990
2 68298  97.2806 217.4233 0001389  76.8602   3.8701 15.86562315  3351
STARLINK-37118          
1 68299U 26057F   26093.83335647 -.01376700  00000+0 -62332-2 0  9996
2 68299  97.2792 217.4300 0001454  73.4547  24.4176 15.86633896  3195
STARLINK-36875          
1 68300U 26057G   26093.83335647 -.01374020  00000+0 -62346-2 0  9997
2 68300  97.2798 217.4284 0001489  69.2315  24.6044 15.86583582  3258
STARLINK-37099          
1 68301U 26057H   26093.83335647 -.01395361  00000+0 -63361-2 0  9997
2 68301  97.2790 217.4323 0001479  71.3268  31.2433 15.86613997  3086
STARLINK-37007          
1 68302U 26057J   26093.83335647 -.01408408  00000+0 -64182-2 0  9997
2 68302  97.2778 217.4353 0001465  77.4708  34.4569 15.86569307  3302
STARLINK-36300          
1 68303U 26057K   26093.83335647 -.01410356  00000+0 -64268-2 0  9998
2 68303  97.2782 217.4338 0001471  76.6111  30.8117 15.86574317  3358
STARLINK-36849          
1 68304U 26057L   26093.83335647 -.01412314  00000+0 -64215-2 0  9997
2 68304  97.2778 217.4376 0001500  70.6413  45.3448 15.86623012  3252
