CCSDS_OMM_VERS = 2.0
CREATION_DATE  = 
ORIGINATOR     = 

OBJECT_NAME    = ELECTRON KICK STAGE R/B
OBJECT_ID      = 2026-056C
CENTER_NAME    = EARTH
REF_FRAME      = TEME
TIME_SYSTEM    = UTC
MEAN_ELEMENT_THEORY = SGP/SGP4

EPOCH          = 2026-04-03T20:51:58.784832
MEAN_MOTION    = 15.40968504
ECCENTRICITY   = .0153195
INCLINATION    = 50.2922
RA_OF_ASC_NODE = 336.7653
ARG_OF_PERICENTER = 68.2534
MEAN_ANOMALY   = 293.4659

EPHEMERIS_TYPE = 0
CLASSIFICATION_TYPE = U
NORAD_CAT_ID   = 68293
ELEMENT_SET_NO = 999
REV_AT_EPOCH   = 218
BSTAR          = .19613E-2
MEAN_MOTION_DOT = .127375E-2
MEAN_MOTION_DDOT = 0

CCSDS_OMM_VERS = 2.0
CREATION_DATE  = 
ORIGINATOR     = 

OBJECT_NAME    = STARLINK-37107
OBJECT_ID      = 2026-057A
CENTER_NAME    = EARTH
REF_FRAME      = TEME
TIME_SYSTEM    = UTC
MEAN_ELEMENT_THEORY = SGP/SGP4

EPOCH          = 2026-04-03T20:00:01.999008
MEAN_MOTION    = 15.86472916
ECCENTRICITY   = .0001414
INCLINATION    = 97.2815
RA_OF_ASC_NODE = 217.4212
ARG_OF_PERICENTER = 72.3881
MEAN_ANOMALY   = 0.2846

EPHEMERIS_TYPE = 0
CLASSIFICATION_TYPE = U
NORAD_CAT_ID   = 68294
ELEMENT_SET_NO = 999
REV_AT_EPOCH   = 320
BSTAR          = -.61755E-2
MEAN_MOTION_DOT = -.1356089E-1
MEAN_MOTION_DDOT = 0

CCSDS_OMM_VERS = 2.0
CREATION_DATE  = 
ORIGINATOR     = 

OBJECT_NAME    = STARLINK-37147
OBJECT_ID      = 2026-057B
CENTER_NAME    = EARTH
REF_FRAME      = TEME
TIME_SYSTEM    = UTC
MEAN_ELEMENT_THEORY = SGP/SGP4

EPOCH          = 2026-04-03T20:00:01.999008
MEAN_MOTION    = 15.86517503
ECCENTRICITY   = .0001389
INCLINATION    = 97.2810
RA_OF_ASC_NODE = 217.4221
ARG_OF_PERICENTER = 72.2321
MEAN_ANOMALY   = 4.4169

EPHEMERIS_TYPE = 0
CLASSIFICATION_TYPE = U
NORAD_CAT_ID   = 68295
ELEMENT_SET_NO = 999
REV_AT_EPOCH   = 319
BSTAR          = -.61272E-2
MEAN_MOTION_DOT = -.1349339E-1
MEAN_MOTION_DDOT = 0

CCSDS_OMM_VERS = 2.0
CREATION_DATE  = 
ORIGINATOR     = 

OBJECT_NAME    = STARLINK-37142
OBJECT_ID      = 2026-057C
CENTER_NAME    = EARTH
REF_FRAME      = TEME
TIME_SYSTEM    = UTC
MEAN_ELEMENT_THEORY = SGP/SGP4

EPOCH          = 2026-04-03T20:00:01.999008
MEAN_MOTION    = 15.86598320
ECCENTRICITY   = .0001506
INCLINATION    = 97.2800
RA_OF_ASC_NODE = 217.4271
ARG_OF_PERICENTER = 69.2343
MEAN_ANOMALY   = 20.0335

EPHEMERIS_TYPE = 0
CLASSIFICATION_TYPE = U
NORAD_CAT_ID   = 68296
ELEMENT_SET_NO = 999
REV_AT_EPOCH   = 308
BSTAR          = -.61929E-2
MEAN_MOTION_DOT = -.1366856E-1
MEAN_MOTION_DDOT = 0

CCSDS_OMM_VERS = 2.0
CREATION_DATE  = 
ORIGINATOR     = 

OBJECT_NAME    = STARLINK-37115
OBJECT_ID      = 2026-057D
CENTER_NAME    = EARTH
REF_FRAME      = TEME
TIME_SYSTEM    = UTC
MEAN_ELEMENT_THEORY = SGP/SGP4

EPOCH          = 2026-04-03T20:00:01.999008
MEAN_MOTION    = 15.86557652
ECCENTRICITY   = .0001329
INCLINATION    = 97.2800
RA_OF_ASC_NODE = 217.4243
ARG_OF_PERICENTER = 74.1384
MEAN_ANOMALY   = 11.0709

EPHEMERIS_TYPE = 0
CLASSIFICATION_TYPE = U
NORAD_CAT_ID   = 68297
ELEMENT_SET_NO = 999
REV_AT_EPOCH   = 308
BSTAR          = -.62188E-2
MEAN_MOTION_DOT = -.136934E-1
MEAN_MOTION_DDOT = 0

CCSDS_OMM_VERS = 2.0
CREATION_DATE  = 
ORIGINATOR     = 

OBJECT_NAME    = STARLINK-36355
OBJECT_ID      = 2026-057E
CENTER_NAME    = EARTH
REF_FRAME      = TEME
TIME_SYSTEM    = UTC
MEAN_ELEMENT_THEORY = SGP/SGP4

EPOCH          = 2026-04-03T20:00:01.999008
MEAN_MOTION    = 15.86562315
ECCENTRICITY   = .0001389
INCLINATION    = 97.2806
RA_OF_ASC_NODE = 217.4233
ARG_OF_PERICENTER = 76.8602
MEAN_ANOMALY   = 3.8701

EPHEMERIS_TYPE = 0
CLASSIFICATION_TYPE = U
NORAD_CAT_ID   = 68298
ELEMENT_SET_NO = 999
REV_AT_EPOCH   = 335
BSTAR          = -.61788E-2
MEAN_MOTION_DOT = -.1361932E-1
MEAN_MOTION_DDOT = 0

CCSDS_OMM_VERS = 2.0
CREATION_DATE  = 
ORIGINATOR     = 

OBJECT_NAME    = STARLINK-37118
OBJECT_ID      = 2026-057F
CENTER_NAME    = EARTH
REF_FRAME      = TEME
TIME_SYSTEM    = UTC
MEAN_ELEMENT_THEORY = SGP/SGP4

EPOCH          = 2026-04-03T20:00:01.999008
MEAN_MOTION    = 15.86633896
ECCENTRICITY   = .0001454
INCLINATION    = 97.2792
RA_OF_ASC_NODE = 217.4300
ARG_OF_PERICENTER = 73.4547
MEAN_ANOMALY   = 24.4176

EPHEMERIS_TYPE = 0
CLASSIFICATION_TYPE = U
NORAD_CAT_ID   = 68299
ELEMENT_SET_NO = 999
REV_AT_EPOCH   = 319
BSTAR          = -.62332E-2
MEAN_MOTION_DOT = -.13767E-1
MEAN_MOTION_DDOT = 0

CCSDS_OMM_VERS = 2.0
CREATION_DATE  = 
ORIGINATOR     = 

OBJECT_NAME    = STARLINK-36875
OBJECT_ID      = 2026-057G
CENTER_NAME    = EARTH
REF_FRAME      = TEME
TIME_SYSTEM    = UTC
MEAN_ELEMENT_THEORY = SGP/SGP4

EPOCH          = 2026-04-03T20:00:01.999008
MEAN_MOTION    = 15.86583582
ECCENTRICITY   = .0001489
INCLINATION    = 97.2798
RA_OF_ASC_NODE = 217.4284
ARG_OF_PERICENTER = 69.2315
MEAN_ANOMALY   = 24.6044

EPHEMERIS_TYPE = 0
CLASSIFICATION_TYPE = U
NORAD_CAT_ID   = 68300
ELEMENT_SET_NO = 999
REV_AT_EPOCH   = 325
BSTAR          = -.62346E-2
MEAN_MOTION_DOT = -.137402E-1
MEAN_MOTION_DDOT = 0

CCSDS_OMM_VERS = 2.0
CREATION_DATE  = 
ORIGINATOR     = 

OBJECT_NAME    = STARLINK-37099
OBJECT_ID      = 2026-057H
CENTER_NAME    = EARTH
REF_FRAME      = TEME
TIME_SYSTEM    = UTC
MEAN_ELEMENT_THEORY = SGP/SGP4

EPOCH          = 2026-04-03T20:00:01.999008
MEAN_MOTION    = 15.86613997
ECCENTRICITY   = .0001479
INCLINATION    = 97.2790
RA_OF_ASC_NODE = 217.4323
ARG_OF_PERICENTER = 71.3268
MEAN_ANOMALY   = 31.2433

EPHEMERIS_TYPE = 0
CLASSIFICATION_TYPE = U
NORAD_CAT_ID   = 68301
ELEMENT_SET_NO = 999
REV_AT_EPOCH   = 308
BSTAR          = -.63361E-2
MEAN_MOTION_DOT = -.1395361E-1
MEAN_MOTION_DDOT = 0

CCSDS_OMM_VERS = 2.0
CREATION_DATE  = 
ORIGINATOR     = 

OBJECT_NAME    = STARLINK-37007
OBJECT_ID      = 2026-057J
CENTER_NAME    = EARTH
REF_FRAME      = TEME
TIME_SYSTEM    = UTC
MEAN_ELEMENT_THEORY = SGP/SGP4

EPOCH          = 2026-04-03T20:00:01.999008
MEAN_MOTION    = 15.86569307
ECCENTRICITY   = .0001465
INCLINATION    = 97.2778
RA_OF_ASC_NODE = 217.4353
ARG_OF_PERICENTER = 77.4708
MEAN_ANOMALY   = 34.4569

EPHEMERIS_TYPE = 0
CLASSIFICATION_TYPE = U
NORAD_CAT_ID   = 68302
ELEMENT_SET_NO = 999
REV_AT_EPOCH   = 330
BSTAR          = -.64182E-2
MEAN_MOTION_DOT = -.1408408E-1
MEAN_MOTION_DDOT = 0

CCSDS_OMM_VERS = 2.0
CREATION_DATE  = 
ORIGINATOR     = 

OBJECT_NAME    = STARLINK-36300
OBJECT_ID      = 2026-057K
CENTER_NAME    = EARTH
REF_FRAME      = TEME
TIME_SYSTEM    = UTC
MEAN_ELEMENT_THEORY = SGP/SGP4

EPOCH          = 2026-04-03T20:00:01.999008
MEAN_MOTION    = 15.86574317
ECCENTRICITY   = .0001471
INCLINATION    = 97.2782
RA_OF_ASC_NODE = 217.4338
ARG_OF_PERICENTER = 76.6111
MEAN_ANOMALY   = 30.8117

EPHEMERIS_TYPE = 0
CLASSIFICATION_TYPE = U
NORAD_CAT_ID   = 68303
ELEMENT_SET_NO = 999
REV_AT_EPOCH   = 335
BSTAR          = -.64268E-2
MEAN_MOTION_DOT = -.1410356E-1
MEAN_MOTION_DDOT = 0

CCSDS_OMM_VERS = 2.0
CREATION_DATE  = 
ORIGINATOR     = 

OBJECT_NAME    = STARLINK-36849
OBJECT_ID      = 2026-057L
CENTER_NAME    = EARTH
REF_FRAME      = TEME
TIME_SYSTEM    = UTC
MEAN_ELEMENT_THEORY = SGP/SGP4

EPOCH          = 2026-04-03T20:00:01.999008
MEAN_MOTION    = 15.86623012
ECCENTRICITY   = .00015
INCLINATION    = 97.2778
RA_OF_ASC_NODE = 217.4376
ARG_OF_PERICENTER = 70.6413
MEAN_ANOMALY   = 45.3448

EPHEMERIS_TYPE = 0
CLASSIFICATION_TYPE = U
NORAD_CAT_ID   = 68304
ELEMENT_SET_NO = 999
REV_AT_EPOCH   = 325
BSTAR          = -.64215E-2
MEAN_MOTION_DOT = -.1412314E-1
MEAN_MOTION_DDOT = 0

